{
  "type": "FeatureCollection",
  "features": [
    {
      "type": "Feature",
      "properties": {
        "norad_id": 37084,
        "name": "COSMOS 2251 DEB",
        "group": "cosmos-2251-debris",
        "lat": -54.248599376054,
        "lon": 158.533691151386,
        "alt_km": 517.0161343070831,
        "timestamp": "2025-12-02T15:49:07.591867+00:00",
        "meta_object_name": "COSMOS 2251 DEB",
        "meta_object_id": "1993-036BFE",
        "meta_epoch": "2025-12-01T06:28:31.045728",
        "meta_mean_motion": 15.00732489,
        "meta_eccentricity": 0.0098181,
        "meta_inclination": 74.0271,
        "meta_ra_of_asc_node": 184.8055,
        "meta_arg_of_pericenter": 268.0487,
        "meta_mean_anomaly": 90.9454,
        "meta_ephemeris_type": 0,
        "meta_classification_type": "U",
        "meta_norad_cat_id": 37084,
        "meta_element_set_no": 999,
        "meta_rev_at_epoch": 66095,
        "meta_bstar": 0.00060454,
        "meta_mean_motion_dot": 8.458e-05,
        "meta_mean_motion_ddot": 0,
        "tle_line1": "1 37084U 93036BFE 25335.26980377  .00008458  00000+0  60454-3 0  9999",
        "tle_line2": "2 37084  74.0271 184.8055 0098181 268.0487  90.9454 15.00732489660954"
      },
      "geometry": {
        "type": "Point",
        "coordinates": [
          158.533691151386,
          -54.248599376054
        ]
      }
    },
    {
      "type": "Feature",
      "properties": {
        "norad_id": 37085,
        "name": "COSMOS 2251 DEB",
        "group": "cosmos-2251-debris",
        "lat": 1.1941597657610459,
        "lon": -121.69622506274845,
        "alt_km": 447.9500979780205,
        "timestamp": "2025-12-02T15:49:07.591878+00:00",
        "meta_object_name": "COSMOS 2251 DEB",
        "meta_object_id": "1993-036BFF",
        "meta_epoch": "2025-11-28T11:55:49.113408",
        "meta_mean_motion": 15.38117906,
        "meta_eccentricity": 0.00226635,
        "meta_inclination": 73.9498,
        "meta_ra_of_asc_node": 246.9762,
        "meta_arg_of_pericenter": 85.7386,
        "meta_mean_anomaly": 274.6409,
        "meta_ephemeris_type": 0,
        "meta_classification_type": "U",
        "meta_norad_cat_id": 37085,
        "meta_element_set_no": 999,
        "meta_rev_at_epoch": 66918,
        "meta_bstar": 0.0022192739,
        "meta_mean_motion_dot": 0.00084925,
        "meta_mean_motion_ddot": 0,
        "tle_line1": "1 37085U 93036BFF 25332.49709622  .00084925  00000+0  22193-2 0  9994",
        "tle_line2": "2 37085  73.9498 246.9762 0022663  85.7386 274.6409 15.38117906669180"
      },
      "geometry": {
        "type": "Point",
        "coordinates": [
          -121.69622506274845,
          1.1941597657610459
        ]
      }
    },
    {
      "type": "Feature",
      "properties": {
        "norad_id": 37089,
        "name": "COSMOS 2251 DEB",
        "group": "cosmos-2251-debris",
        "lat": 68.0101375422885,
        "lon": -150.0943590426483,
        "alt_km": 804.3385857067315,
        "timestamp": "2025-12-02T15:49:07.591889+00:00",
        "meta_object_name": "COSMOS 2251 DEB",
        "meta_object_id": "1993-036BFK",
        "meta_epoch": "2025-11-27T19:45:58.315104",
        "meta_mean_motion": 14.52523041,
        "meta_eccentricity": 0.0136019,
        "meta_inclination": 74.0379,
        "meta_ra_of_asc_node": 173.8866,
        "meta_arg_of_pericenter": 277.3049,
        "meta_mean_anomaly": 81.267,
        "meta_ephemeris_type": 0,
        "meta_classification_type": "U",
        "meta_norad_cat_id": 37089,
        "meta_element_set_no": 999,
        "meta_rev_at_epoch": 65893,
        "meta_bstar": 0.0020033475,
        "meta_mean_motion_dot": 9.221e-05,
        "meta_mean_motion_ddot": 0,
        "tle_line1": "1 37089U 93036BFK 25331.82359161  .00009221  00000+0  20033-2 0  9990",
        "tle_line2": "2 37089  74.0379 173.8866 0136019 277.3049  81.2670 14.52523041658932"
      },
      "geometry": {
        "type": "Point",
        "coordinates": [
          -150.0943590426483,
          68.0101375422885
        ]
      }
    },
    {
      "type": "Feature",
      "properties": {
        "norad_id": 37094,
        "name": "COSMOS 2251 DEB",
        "group": "cosmos-2251-debris",
        "lat": 22.191749599541943,
        "lon": 146.31448792987686,
        "alt_km": 760.0123153824525,
        "timestamp": "2025-12-02T15:49:07.591899+00:00",
        "meta_object_name": "COSMOS 2251 DEB",
        "meta_object_id": "1993-036BFQ",
        "meta_epoch": "2025-12-01T04:38:30.122016",
        "meta_mean_motion": 14.37719988,
        "meta_eccentricity": 0.0084296,
        "meta_inclination": 74.1075,
        "meta_ra_of_asc_node": 142.3264,
        "meta_arg_of_pericenter": 111.6851,
        "meta_mean_anomaly": 249.3305,
        "meta_ephemeris_type": 0,
        "meta_classification_type": "U",
        "meta_norad_cat_id": 37094,
        "meta_element_set_no": 999,
        "meta_rev_at_epoch": 84340,
        "meta_bstar": 0.0011679,
        "meta_mean_motion_dot": 3.636e-05,
        "meta_mean_motion_ddot": 0,
        "tle_line1": "1 37094U 93036BFQ 25335.19340419  .00003636  00000+0  11679-2 0  9996",
        "tle_line2": "2 37094  74.1075 142.3264 0084296 111.6851 249.3305 14.37719988843405"
      },
      "geometry": {
        "type": "Point",
        "coordinates": [
          146.31448792987686,
          22.191749599541943
        ]
      }
    },
    {
      "type": "Feature",
      "properties": {
        "norad_id": 37095,
        "name": "COSMOS 2251 DEB",
        "group": "cosmos-2251-debris",
        "lat": 56.8117823753561,
        "lon": 1.3589251622352434,
        "alt_km": 996.6270025020858,
        "timestamp": "2025-12-02T15:49:07.591910+00:00",
        "meta_object_name": "COSMOS 2251 DEB",
        "meta_object_id": "1993-036BFR",
        "meta_epoch": "2025-11-28T22:16:06.284928",
        "meta_mean_motion": 14.03292763,
        "meta_eccentricity": 0.01969867,
        "meta_inclination": 73.845,
        "meta_ra_of_asc_node": 214.2335,
        "meta_arg_of_pericenter": 274.3091,
        "meta_mean_anomaly": 83.5558,
        "meta_ephemeris_type": 0,
        "meta_classification_type": "U",
        "meta_norad_cat_id": 37095,
        "meta_element_set_no": 999,
        "meta_rev_at_epoch": 62442,
        "meta_bstar": 0.0014835194,
        "meta_mean_motion_dot": 2.723e-05,
        "meta_mean_motion_ddot": 0,
        "tle_line1": "1 37095U 93036BFR 25332.92785052  .00002723  00000+0  14835-2 0  9994",
        "tle_line2": "2 37095  73.8450 214.2335 0196986 274.3091  83.5558 14.03292763624427"
      },
      "geometry": {
        "type": "Point",
        "coordinates": [
          1.3589251622352434,
          56.8117823753561
        ]
      }
    },
    {
      "type": "Feature",
      "properties": {
        "norad_id": 37108,
        "name": "COSMOS 2251 DEB",
        "group": "cosmos-2251-debris",
        "lat": -49.091811461359086,
        "lon": -61.49729018665558,
        "alt_km": 721.6703762236184,
        "timestamp": "2025-12-02T15:49:07.591920+00:00",
        "meta_object_name": "COSMOS 2251 DEB",
        "meta_object_id": "1993-036BGE",
        "meta_epoch": "2025-11-29T08:26:41.390880",
        "meta_mean_motion": 14.41078034,
        "meta_eccentricity": 0.00928305,
        "meta_inclination": 74.0431,
        "meta_ra_of_asc_node": 105.339,
        "meta_arg_of_pericenter": 185.0618,
        "meta_mean_anomaly": 174.961,
        "meta_ephemeris_type": 0,
        "meta_classification_type": "U",
        "meta_norad_cat_id": 37108,
        "meta_element_set_no": 999,
        "meta_rev_at_epoch": 85314,
        "meta_bstar": 0.001488902,
        "meta_mean_motion_dot": 5.021e-05,
        "meta_mean_motion_ddot": 0,
        "tle_line1": "1 37108U 93036BGE 25333.35186795  .00005021  00000+0  14889-2 0  9999",
        "tle_line2": "2 37108  74.0431 105.3390 0092830 185.0618 174.9610 14.41078034853143"
      },
      "geometry": {
        "type": "Point",
        "coordinates": [
          -61.49729018665558,
          -49.091811461359086
        ]
      }
    },
    {
      "type": "Feature",
      "properties": {
        "norad_id": 37126,
        "name": "COSMOS 2251 DEB",
        "group": "cosmos-2251-debris",
        "lat": 52.93639027200127,
        "lon": 36.68357763822306,
        "alt_km": 728.552179689932,
        "timestamp": "2025-12-02T15:49:07.591930+00:00",
        "meta_object_name": "COSMOS 2251 DEB",
        "meta_object_id": "1993-036BGY",
        "meta_epoch": "2025-11-27T19:49:48.379296",
        "meta_mean_motion": 14.7298682,
        "meta_eccentricity": 0.01235898,
        "meta_inclination": 73.9551,
        "meta_ra_of_asc_node": 23.7462,
        "meta_arg_of_pericenter": 265.0836,
        "meta_mean_anomaly": 93.6217,
        "meta_ephemeris_type": 0,
        "meta_classification_type": "U",
        "meta_norad_cat_id": 37126,
        "meta_element_set_no": 999,
        "meta_rev_at_epoch": 7879,
        "meta_bstar": 0.00028630481,
        "meta_mean_motion_dot": 2.036e-05,
        "meta_mean_motion_ddot": 0,
        "tle_line1": "1 37126U 93036BGY 25331.82625439  .00002036  00000+0  28630-3 0  9995",
        "tle_line2": "2 37126  73.9551  23.7462 0123589 265.0836  93.6217 14.72986820 78799"
      },
      "geometry": {
        "type": "Point",
        "coordinates": [
          36.68357763822306,
          52.93639027200127
        ]
      }
    }
  ]
}